OBJECT_NAME,OBJECT_ID,EPOCH,MEAN_MOTION,ECCENTRICITY,INCLINATION,RA_OF_ASC_NODE,ARG_OF_PERICENTER,MEAN_ANOMALY,EPHEMERIS_TYPE,CLASSIFICATION_TYPE,NORAD_CAT_ID,ELEMENT_SET_NO,REV_AT_EPOCH,BSTAR,MEAN_MOTION_DOT,MEAN_MOTION_DDOT
SAUDISAT 1C (SO-50),2002-058C,2026-07-24T05:48:46.132704,14.83113955,.00742483,64.5525,14.3305,255.6154,103.6703,0,U,27607,999,26995,.1471104E-3,.1104E-4,0
SAUDISAT 2,2004-025F,2026-07-24T06:12:02.205504,14.56702257,.00246655,98.5526,206.2016,180.0033,180.1168,0,U,28371,999,17114,.68706768E-4,.258E-5,0
SAUDISAT 3,2007-012B,2026-07-23T20:14:50.585856,14.71444117,.00159427,98.1471,155.2723,109.2109,251.0824,0,U,31118,999,3313,.48512816E-4,.25E-5,0
PISAT,2016-059B,2026-07-23T23:51:03.591648,14.69042320,.00305777,97.8196,203.8685,88.0656,272.4052,0,U,41784,999,52514,.16839174E-3,.948E-5,0
FLYING LAPTOP,2017-042G,2026-07-24T07:27:50.800896,15.01356238,.00190723,97.4851,359.4578,3.5658,356.5700,0,U,42831,999,49202,.23346881E-3,.2961E-4,0
SALSAT,2020-068K,2026-07-24T05:26:36.991392,15.30274447,.00101826,97.8865,210.5620,161.9998,198.1604,0,U,46495,999,32102,.30305131E-3,.8806E-4,0
